POPACS 2                
1 39269U 13055E   26068.50954283  .00029878  00000+0  51935-3 0  9990
2 39269  80.9893 258.0384 0430745 153.4128 208.9906 14.87802959648370
STARLINK-3889           
1 52331U 22045A   26068.64751748  .00000881  00000+0  73403-4 0  9998
2 52331  53.2171 209.3111 0001492 101.3829 258.7331 15.08847966215632
